{"type": "FeatureCollection", "features": [ {"type": "Feature", "properties": {"norad_id": 29986, "name": "FENGYUN 1C DEB", "group": "fengyun-1c-debris", "lat": 0.568568481418955, "lon": -116.65883724852796, "alt_km": 811.5900068666215, "timestamp": "2025-12-20T22:39:10.899722+00:00", "meta": {"OBJECT_NAME": "FENGYUN 1C DEB", "OBJECT_ID": "1999-025LL", "EPOCH": "2025-12-20T03:28:56.758368", "MEAN_MOTION": 14.29270045, "ECCENTRICITY": 0.00227586, "INCLINATION": 99.3981, "RA_OF_ASC_NODE": 62.3864, "ARG_OF_PERICENTER": 335.0915, "MEAN_ANOMALY": 56.6183, "EPHEMERIS_TYPE": 0, "CLASSIFICATION_TYPE": "U", "NORAD_CAT_ID": 29986, "ELEMENT_SET_NO": 999, "REV_AT_EPOCH": 97613, "BSTAR": 0.001053979, "MEAN_MOTION_DOT": 2.638e-05, "MEAN_MOTION_DDOT": 0}, "tle": {"line1": "1 29986U 99025LL  25354.14510137  .00002638  00000+0  10540-2 0  9990", "line2": "2 29986  99.3981  62.3864 0022758 335.0915  56.6183 14.29270045976133"}}, "geometry": {"type": "Point", "coordinates": [-116.65883724852796, 0.568568481418955]}}, {"type": "Feature", "properties": {"norad_id": 29987, "name": "FENGYUN 1C DEB", "group": "fengyun-1c-debris", "lat": 59.91575847445933, "lon": -128.7898339910046, "alt_km": 886.3454940529828, "timestamp": "2025-12-20T22:39:10.899731+00:00", "meta": {"OBJECT_NAME": "FENGYUN 1C DEB", "OBJECT_ID": "1999-025LM", "EPOCH": "2025-12-19T15:57:40.083264", "MEAN_MOTION": 14.14600272, "ECCENTRICITY": 0.00789139, "INCLINATION": 98.8983, "RA_OF_ASC_NODE": 245.6259, "ARG_OF_PERICENTER": 213.4728, "MEAN_ANOMALY": 179.2949, "EPHEMERIS_TYPE": 0, "CLASSIFICATION_TYPE": "U", "NORAD_CAT_ID": 29987, "ELEMENT_SET_NO": 999, "REV_AT_EPOCH": 96471, "BSTAR": 0.0015714485, "MEAN_MOTION_DOT": 3.067e-05, "MEAN_MOTION_DDOT": 0}, "tle": {"line1": "1 29987U 99025LM  25353.66504726  .00003067  00000+0  15714-2 0  9999", "line2": "2 29987  98.8983 245.6259 0078913 213.4728 179.2949 14.14600272964715"}}, "geometry": {"type": "Point", "coordinates": [-128.7898339910046, 59.91575847445933]}}, {"type": "Feature", "properties": {"norad_id": 29988, "name": "FENGYUN 1C DEB", "group": "fengyun-1c-debris", "lat": 61.367833703897276, "lon": 82.83725221998064, "alt_km": 687.1431167279889, "timestamp": "2025-12-20T22:39:10.899740+00:00", "meta": {"OBJECT_NAME": "FENGYUN 1C DEB", "OBJECT_ID": "1999-025LN", "EPOCH": "2025-12-20T06:05:07.900224", "MEAN_MOTION": 14.50467109, "ECCENTRICITY": 0.0120192, "INCLINATION": 98.6958, "RA_OF_ASC_NODE": 98.4045, "ARG_OF_PERICENTER": 355.3785, "MEAN_ANOMALY": 63.4933, "EPHEMERIS_TYPE": 0, "CLASSIFICATION_TYPE": "U", "NORAD_CAT_ID": 29988, "ELEMENT_SET_NO": 999, "REV_AT_EPOCH": 98176, "BSTAR": 0.00095337, "MEAN_MOTION_DOT": 4.04e-05, "MEAN_MOTION_DDOT": 0}, "tle": {"line1": "1 29988U 99025LN  25354.25356366  .00004040  00000+0  95337-3 0  9993", "line2": "2 29988  98.6958  98.4045 0120192 355.3785  63.4933 14.50467109981760"}}, "geometry": {"type": "Point", "coordinates": [82.83725221998064, 61.367833703897276]}}, {"type": "Feature", "properties": {"norad_id": 29989, "name": "FENGYUN 1C DEB", "group": "fengyun-1c-debris", "lat": 36.62783875635549, "lon": -32.99947276778176, "alt_km": 899.3170190215096, "timestamp": "2025-12-20T22:39:10.899750+00:00", "meta": {"OBJECT_NAME": "FENGYUN 1C DEB", "OBJECT_ID": "1999-025LP", "EPOCH": "2025-12-20T09:38:26.353824", "MEAN_MOTION": 14.15823392, "ECCENTRICITY": 0.01236215, "INCLINATION": 98.6684, "RA_OF_ASC_NODE": 332.985, "ARG_OF_PERICENTER": 173.668, "MEAN_ANOMALY": 342.6212, "EPHEMERIS_TYPE": 0, "CLASSIFICATION_TYPE": "U", "NORAD_CAT_ID": 29989, "ELEMENT_SET_NO": 999, "REV_AT_EPOCH": 97719, "BSTAR": 9.200972e-05, "MEAN_MOTION_DOT": 1.52e-06, "MEAN_MOTION_DDOT": 0}, "tle": {"line1": "1 29989U 99025LP  25354.40169391  .00000152  00000+0  92010-4 0  9997", "line2": "2 29989  98.6684 332.9850 0123621 173.6680 342.6212 14.15823392977197"}}, "geometry": {"type": "Point", "coordinates": [-32.99947276778176, 36.62783875635549]}}, {"type": "Feature", "properties": {"norad_id": 29992, "name": "FENGYUN 1C DEB", "group": "fengyun-1c-debris", "lat": 42.190061914327934, "lon": 177.86283041655275, "alt_km": 786.3206635824417, "timestamp": "2025-12-20T22:39:10.899759+00:00", "meta": {"OBJECT_NAME": "FENGYUN 1C DEB", "OBJECT_ID": "1999-025LS", "EPOCH": "2025-12-20T12:21:30.353760", "MEAN_MOTION": 14.11614185, "ECCENTRICITY": 0.00892477, "INCLINATION": 98.7302, "RA_OF_ASC_NODE": 349.4393, "ARG_OF_PERICENTER": 145.6545, "MEAN_ANOMALY": 333.0101, "EPHEMERIS_TYPE": 0, "CLASSIFICATION_TYPE": "U", "NORAD_CAT_ID": 29992, "ELEMENT_SET_NO": 999, "REV_AT_EPOCH": 97497, "BSTAR": 9.4401951e-05, "MEAN_MOTION_DOT": 1.36e-06, "MEAN_MOTION_DDOT": 0}, "tle": {"line1": "1 29992U 99025LS  25354.51493465  .00000136  00000+0  94402-4 0  9994", "line2": "2 29992  98.7302 349.4393 0089247 145.6545 333.0101 14.11614185974976"}}, "geometry": {"type": "Point", "coordinates": [177.86283041655275, 42.190061914327934]}}, {"type": "Feature", "properties": {"norad_id": 29993, "name": "FENGYUN 1C DEB", "group": "fengyun-1c-debris", "lat": -2.2727918953125408, "lon": 31.81816688206898, "alt_km": 857.8554943958152, "timestamp": "2025-12-20T22:39:10.899769+00:00", "meta": {"OBJECT_NAME": "FENGYUN 1C DEB", "OBJECT_ID": "1999-025LT", "EPOCH": "2025-12-20T14:08:14.461728", "MEAN_MOTION": 14.08151172, "ECCENTRICITY": 0.00382684, "INCLINATION": 98.7922, "RA_OF_ASC_NODE": 31.1206, "ARG_OF_PERICENTER": 292.0733, "MEAN_ANOMALY": 67.6375, "EPHEMERIS_TYPE": 0, "CLASSIFICATION_TYPE": "U", "NORAD_CAT_ID": 29993, "ELEMENT_SET_NO": 999, "REV_AT_EPOCH": 97280, "BSTAR": 7.4519271e-05, "MEAN_MOTION_DOT": 8.5e-07, "MEAN_MOTION_DDOT": 0}, "tle": {"line1": "1 29993U 99025LT  25354.58905627  .00000085  00000+0  74519-4 0  9990", "line2": "2 29993  98.7922  31.1206 0038268 292.0733  67.6375 14.08151172972807"}}, "geometry": {"type": "Point", "coordinates": [31.81816688206898, -2.2727918953125408]}}, {"type": "Feature", "properties": {"norad_id": 29994, "name": "FENGYUN 1C DEB", "group": "fengyun-1c-debris", "lat": 53.033825914387116, "lon": -141.14330581996734, "alt_km": 838.3113814415228, "timestamp": "2025-12-20T22:39:10.899778+00:00", "meta": {"OBJECT_NAME": "FENGYUN 1C DEB", "OBJECT_ID": "1999-025LU", "EPOCH": "2025-12-20T01:46:06.743424", "MEAN_MOTION": 14.0264522, "ECCENTRICITY": 0.01297899, "INCLINATION": 98.8276, "RA_OF_ASC_NODE": 26.0973, "ARG_OF_PERICENTER": 193.0858, "MEAN_ANOMALY": 222.6312, "EPHEMERIS_TYPE": 0, "CLASSIFICATION_TYPE": "U", "NORAD_CAT_ID": 29994, "ELEMENT_SET_NO": 999, "REV_AT_EPOCH": 96829, "BSTAR": -3.738817e-05, "MEAN_MOTION_DOT": -1.05e-06, "MEAN_MOTION_DDOT": 0}, "tle": {"line1": "1 29994U 99025LU  25354.07368916 -.00000105  00000+0 -37388-4 0  9997", "line2": "2 29994  98.8276  26.0973 0129789 193.0858 222.6312 14.02645220968290"}}, "geometry": {"type": "Point", "coordinates": [-141.14330581996734, 53.033825914387116]}}, {"type": "Feature", "properties": {"norad_id": 29996, "name": "FENGYUN 1C DEB", "group": "fengyun-1c-debris", "lat": 28.87780750691335, "lon": -142.22125140438777, "alt_km": 851.1427397642601, "timestamp": "2025-12-20T22:39:10.899787+00:00", "meta": {"OBJECT_NAME": "FENGYUN 1C DEB", "OBJECT_ID": "1999-025LW", "EPOCH": "2025-12-20T01:45:37.184256", "MEAN_MOTION": 14.09462581, "ECCENTRICITY": 0.01310283, "INCLINATION": 99.3029, "RA_OF_ASC_NODE": 31.693, "ARG_OF_PERICENTER": 67.4841, "MEAN_ANOMALY": 346.9158, "EPHEMERIS_TYPE": 0, "CLASSIFICATION_TYPE": "U", "NORAD_CAT_ID": 29996, "ELEMENT_SET_NO": 999, "REV_AT_EPOCH": 96240, "BSTAR": 0.0012252176, "MEAN_MOTION_DOT": 2.271e-05, "MEAN_MOTION_DDOT": 0}, "tle": {"line1": "1 29996U 99025LW  25354.07334704  .00002271  00000+0  12252-2 0  9992", "line2": "2 29996  99.3029  31.6930 0131028  67.4841 346.9158 14.09462581962403"}}, "geometry": {"type": "Point", "coordinates": [-142.22125140438777, 28.87780750691335]}}, {"type": "Feature", "properties": {"norad_id": 29997, "name": "FENGYUN 1C DEB", "group": "fengyun-1c-debris", "lat": -81.09075543980843, "lon": 99.19470608074423, "alt_km": 850.2211662106492, "timestamp": "2025-12-20T22:39:10.899796+00:00", "meta": {"OBJECT_NAME": "FENGYUN 1C DEB", "OBJECT_ID": "1999-025LX", "EPOCH": "2025-12-20T07:43:41.282976", "MEAN_MOTION": 14.00895909, "ECCENTRICITY": 0.00801553, "INCLINATION": 98.8821, "RA_OF_ASC_NODE": 4.5602, "ARG_OF_PERICENTER": 306.2639, "MEAN_ANOMALY": 69.1296, "EPHEMERIS_TYPE": 0, "CLASSIFICATION_TYPE": "U", "NORAD_CAT_ID": 29997, "ELEMENT_SET_NO": 999, "REV_AT_EPOCH": 96496, "BSTAR": 0.00067742342, "MEAN_MOTION_DOT": 9.98e-06, "MEAN_MOTION_DDOT": 0}, "tle": {"line1": "1 29997U 99025LX  25354.32200559  .00000998  00000+0  67742-3 0  9990", "line2": "2 29997  98.8821   4.5602 0080155 306.2639  69.1296 14.00895909964961"}}, "geometry": {"type": "Point", "coordinates": [99.19470608074423, -81.09075543980843]}}, {"type": "Feature", "properties": {"norad_id": 29998, "name": "FENGYUN 1C DEB", "group": "fengyun-1c-debris", "lat": -74.08470093009676, "lon": -159.2199327383126, "alt_km": 800.2269875963084, "timestamp": "2025-12-20T22:39:10.899805+00:00", "meta": {"OBJECT_NAME": "FENGYUN 1C DEB", "OBJECT_ID": "1999-025LY", "EPOCH": "2025-12-20T14:43:46.116480", "MEAN_MOTION": 14.28575912, "ECCENTRICITY": 0.00051148, "INCLINATION": 99.3057, "RA_OF_ASC_NODE": 55.529, "ARG_OF_PERICENTER": 273.5652, "MEAN_ANOMALY": 86.4942, "EPHEMERIS_TYPE": 0, "CLASSIFICATION_TYPE": "U", "NORAD_CAT_ID": 29998, "ELEMENT_SET_NO": 999, "REV_AT_EPOCH": 97987, "BSTAR": 0.00061858025, "MEAN_MOTION_DOT": 1.502e-05, "MEAN_MOTION_DDOT": 0}, "tle": {"line1": "1 29998U 99025LY  25354.61372820  .00001502  00000+0  61858-3 0  9998", "line2": "2 29998  99.3057  55.5290 0005114 273.5652  86.4942 14.28575912979876"}}, "geometry": {"type": "Point", "coordinates": [-159.2199327383126, -74.08470093009676]}}]}